      2.10          N: GNSS NAV DATA                        RINEX VERSION / TYPE
fic2rin                                 05/04/2018 00:06:32 PGM / RUN BY / DATE
                                                            END OF HEADER
13 18  5  3 16  0  0.0-9.474018588662e-05 2.273736754432e-13 0.000000000000e+00
    2.500000000000e+01-1.281250000000e+00 4.370182035623e-09-1.423063806422e+00
    4.284083843231e-08 3.449054434896e-03 9.315088391304e-06 5.153659107208e+03
    4.032000000000e+05-5.587935447693e-09-4.047120002793e-02 4.097819328308e-08
    9.689372275990e-01 2.056250000000e+02 1.591102071536e+00-7.832469110920e-09
   -3.875161416028e-10 1.000000000000e+00 1.999000000000e+03 0.000000000000e+00
    2.400000000000e+00 0.000000000000e+00-1.117587089539e-08 2.500000000000e+01
    3.960060000000e+05 4.000000000000e+00
17 18  5  3 16  0  0.0-1.014191657305e-04 3.524291969370e-12 0.000000000000e+00
    2.000000000000e+01-1.040937500000e+02 4.056954702733e-09-1.624620017545e-01
   -5.364418029785e-06 1.234537630808e-02 6.537884473801e-06 5.153555419922e+03
    4.032000000000e+05-1.303851604462e-07 3.032322177647e+00 1.490116119385e-07
    9.828581804912e-01 2.675937500000e+02-1.779049421395e+00-8.143910655139e-09
   -3.110843864848e-10 1.000000000000e+00 1.999000000000e+03 0.000000000000e+00
    2.400000000000e+00 0.000000000000e+00-1.117587089539e-08 2.000000000000e+01
    3.960060000000e+05 4.000000000000e+00
19 18  5  3 16  0  0.0-4.391237162054e-04 2.842170943040e-12 0.000000000000e+00
    2.100000000000e+01-1.218750000000e+02 4.010167039554e-09 2.843268196093e+00
   -6.267800927162e-06 9.859189507551e-03 6.398186087608e-06 5.153716867447e+03
    4.032000000000e+05 8.568167686462e-08 3.079336796658e+00-1.080334186554e-07
    9.803734477807e-01 2.632187500000e+02 1.168227265972e+00-7.763894825954e-09
   -3.560862609935e-10 1.000000000000e+00 1.999000000000e+03 0.000000000000e+00
    2.400000000000e+00 0.000000000000e+00-1.536682248116e-08 2.100000000000e+01
    3.960060000000e+05 4.000000000000e+00
21 18  5  3 16  0  0.0-3.997329622507e-04 4.774847184308e-12 0.000000000000e+00
    2.800000000000e+01-4.487500000000e+01 4.475186409477e-09 2.281950448236e+00
   -2.393499016762e-06 2.444331510924e-02 9.443610906601e-06 5.153718580246e+03
    4.032000000000e+05 3.650784492493e-07-2.302428757331e+00-1.117587089539e-07
    9.436130111438e-01 1.820000000000e+02-1.562823092643e+00-7.541385557550e-09
    2.092944322389e-10 1.000000000000e+00 1.999000000000e+03 0.000000000000e+00
    2.400000000000e+00 0.000000000000e+00-1.024454832077e-08 2.800000000000e+01
    3.960060000000e+05 4.000000000000e+00
12 18  5  3 16  0  0.0 3.359382972121e-04-2.273736754432e-12 0.000000000000e+00
    2.100000000000e+01 3.384375000000e+01 4.168387915802e-09 2.795187147839e+00
    1.551583409309e-06 7.211004500277e-03 2.149492502213e-06 5.153601268768e+03
    4.032000000000e+05-9.685754776001e-08 1.998125448734e+00-1.452863216400e-07
    9.865465919569e-01 3.468750000000e+02 9.693857143946e-01-8.032120284336e-09
   -2.964409193827e-11 1.000000000000e+00 1.999000000000e+03 0.000000000000e+00
    2.400000000000e+00 0.000000000000e+00-1.257285475731e-08 2.100000000000e+01
    3.960060000000e+05 4.000000000000e+00
 7 18  5  3 16  0  0.0 1.977160573006e-04-6.025402399246e-12 0.000000000000e+00
    3.300000000000e+01 1.095625000000e+02 4.371967824294e-09-2.890333632489e+00
    5.448237061501e-06 1.148407137953e-02 9.659677743912e-06 5.153678218842e+03
    4.032000000000e+05-4.470348358154e-08 9.056416455297e-01-2.216547727585e-07
    9.589826303672e-01 1.949687500000e+02-2.535629835115e+00-7.778895450791e-09
    6.821712723145e-11 1.000000000000e+00 1.999000000000e+03 0.000000000000e+00
    2.400000000000e+00 0.000000000000e+00-1.117587089539e-08 3.300000000000e+01
    3.960060000000e+05 4.000000000000e+00
10 18  5  3 16  0  0.0 1.828675158322e-04 2.160049916711e-12 0.000000000000e+00
    2.400000000000e+01 8.812500000000e+00 4.750555022542e-09 1.968586783267e+00
    4.898756742477e-07 3.497860627249e-03 5.895271897316e-06 5.153660261154e+03
    4.032000000000e+05-8.940696716309e-08-1.209225726545e+00 4.097819328308e-08
    9.606299024570e-01 2.640312500000e+02-2.749717292785e+00-8.125338452961e-09
    2.342954736326e-10 1.000000000000e+00 1.999000000000e+03 0.000000000000e+00
    2.400000000000e+00 0.000000000000e+00 1.862645149231e-09 2.400000000000e+01
    3.960060000000e+05 4.000000000000e+00
 6 18  5  3 16  0  0.0 4.056133329868e-04-2.160049916711e-12 0.000000000000e+00
    3.000000000000e+01-3.796875000000e+01 4.052311652189e-09-2.024009431774e+00
   -1.959502696991e-06 1.208865549415e-03 1.077912747860e-05 5.153620811462e+03
    4.032000000000e+05 3.166496753693e-08-2.257177289614e+00 5.587935447693e-08
    9.707058443547e-01 1.782812500000e+02-1.109337895142e+00-7.727821894801e-09
    3.367997433469e-10 1.000000000000e+00 1.999000000000e+03 0.000000000000e+00
    2.400000000000e+00 0.000000000000e+00 4.656612873077e-09 3.000000000000e+01
    3.960060000000e+05 4.000000000000e+00
 4 18  5  3 16  0  0.0 5.787611007690e-05 3.183231456205e-12 0.000000000000e+00
    1.900000000000e+01 3.131250000000e+01 5.739524788531e-09 1.187166162464e+00
    1.762062311172e-06 9.858101839200e-03 2.825632691383e-06 5.153695699692e+03
    4.032000000000e+05-1.341104507446e-07 1.963464612605e+00 1.601874828339e-07
    9.790149864410e-01 3.370312500000e+02 9.200943837728e-01-8.353562245112e-09
   -3.964450849577e-11 1.000000000000e+00 1.999000000000e+03 0.000000000000e+00
    3.400000000000e+00 6.300000000000e+01-1.955777406693e-08 1.900000000000e+01
    3.960060000000e+05 4.000000000000e+00
14 18  5  3 16  0  0.0-9.663961827755e-05-2.273736754432e-13 0.000000000000e+00
    5.600000000000e+01-1.250000000000e+00 4.613406452611e-09-3.932754524040e-01
   -3.166496753693e-08 9.707521996461e-03 8.979812264442e-06 5.153758085251e+03
    4.032000000000e+05-1.061707735062e-07-8.217898422741e-02 1.061707735062e-07
    9.614628382721e-01 2.111250000000e+02-1.956399546294e+00-8.111409301327e-09
   -3.285851154604e-10 1.000000000000e+00 1.999000000000e+03 0.000000000000e+00
    2.400000000000e+00 0.000000000000e+00-9.778887033463e-09 5.600000000000e+01
    3.960060000000e+05 4.000000000000e+00
 9 18  5  3 16  0  0.0 5.129608325660e-04 9.094947017729e-13 0.000000000000e+00
    3.000000000000e+01-7.687500000000e+00 4.767341436049e-09 1.433322602840e-01
   -6.295740604401e-07 9.909492218867e-04 8.275732398033e-06 5.153630161285e+03
    4.032000000000e+05 2.421438694000e-08-1.717430203004e-01 4.656612873077e-08
    9.531064088219e-01 2.125000000000e+02 1.842040371255e+00-8.068907530958e-09
   -3.453715289676e-10 1.000000000000e+00 1.999000000000e+03 0.000000000000e+00
    2.400000000000e+00 0.000000000000e+00 9.313225746155e-10 3.000000000000e+01
    3.960060000000e+05 4.000000000000e+00
 8 18  5  3 16  0  0.0-9.998632594943e-05-1.364242052659e-12 0.000000000000e+00
    8.200000000000e+01-1.000937500000e+02 4.288035756758e-09 2.678056793415e-01
   -5.379319190979e-06 3.479674691334e-03 6.124377250671e-06 5.153559329987e+03
    4.032000000000e+05 7.450580596924e-09 2.970162026279e+00-3.725290298462e-08
    9.693827680776e-01 2.660937500000e+02-4.557754908443e-01-8.079265105250e-09
   -3.521575259173e-10 1.000000000000e+00 1.999000000000e+03 0.000000000000e+00
    3.400000000000e+00 0.000000000000e+00 5.122274160385e-09 8.200000000000e+01
    3.960060000000e+05 4.000000000000e+00
32 18  5  3 16  0  0.0-5.140132270753e-04 4.433786671143e-12 0.000000000000e+00
    3.700000000000e+01-9.343750000000e+00 4.708767567641e-09 7.052196260167e-01
   -6.128102540970e-07 2.040484803729e-03 8.404254913330e-06 5.153660032272e+03
    4.032000000000e+05-2.048909664154e-08-1.668974962249e-01 5.587935447693e-09
    9.574974086389e-01 2.168125000000e+02-2.588558019580e+00-8.038191965817e-09
   -3.660866775510e-10 1.000000000000e+00 1.999000000000e+03 0.000000000000e+00
    2.400000000000e+00 0.000000000000e+00 4.656612873077e-10 3.700000000000e+01
    3.960060000000e+05 4.000000000000e+00
26 18  5  3 16  0  0.0-1.616440713406e-04 1.284661266254e-11 0.000000000000e+00
    3.100000000000e+01 3.884375000000e+01 4.951277669160e-09 1.792434832163e+00
    2.255663275719e-06 2.801065100357e-03 2.428889274597e-06 5.153652076721e+03
    4.032000000000e+05 4.097819328308e-08 1.917087840506e+00 1.322478055954e-07
    9.557425111290e-01 3.304687500000e+02 1.194504152235e-01-8.499639758398e-09
    1.714357124141e-11 1.000000000000e+00 1.999000000000e+03 0.000000000000e+00
    2.400000000000e+00 0.000000000000e+00 7.450580596924e-09 3.100000000000e+01
    3.960060000000e+05 4.000000000000e+00
27 18  5  3 16  0  0.0 3.697071224451e-04-5.684341886081e-13 0.000000000000e+00
    2.500000000000e+01-9.646875000000e+01 4.145886978548e-09-7.129038255916e-03
   -5.101785063744e-06 5.899299634621e-03 5.757436156273e-06 5.153683917999e+03
    4.032000000000e+05 1.862645149231e-08 2.978425910069e+00 5.587935447693e-08
    9.775762562493e-01 2.727187500000e+02 4.063995582071e-01-8.045335120501e-09
   -3.543004723225e-10 1.000000000000e+00 1.999000000000e+03 0.000000000000e+00
    2.400000000000e+00 0.000000000000e+00 1.396983861923e-09 2.500000000000e+01
    3.960060000000e+05 4.000000000000e+00
20 18  5  3 16  0  0.0 5.072942003608e-04 9.094947017729e-13 0.000000000000e+00
    2.200000000000e+01 1.612500000000e+01 5.397367679171e-09-1.814890847043e+00
    1.128762960434e-06 4.251686506905e-03 6.007030606270e-06 5.154831512451e+03
    4.032000000000e+05-2.980232238770e-08-1.314497090629e+00 5.774199962616e-08
    9.278360175115e-01 2.454375000000e+02 1.936488305208e+00-8.425708107420e-09
    3.682296239562e-10 1.000000000000e+00 1.999000000000e+03 0.000000000000e+00
    2.400000000000e+00 0.000000000000e+00-8.381903171539e-09 2.200000000000e+01
    3.960060000000e+05 4.000000000000e+00
